OUFTI-1                 
1 41458U 16025C   22292.03889613  .00023938  00000+0  93847-3 0  9999
2 41458  98.1940 108.3564 0133235 203.9365 155.5637 15.17832389356303
E-ST@R-II               
1 41459U 16025D   22292.41745542  .00024559  00000+0  99077-3 0  9995
2 41459  98.1939 107.0769 0137527 207.6428 151.7418 15.16436177356268
AAUSAT 4                
1 41460U 16025E   22292.52580993  .00040572  00000+0  13757-2 0  9999
2 41460  98.1845 114.6612 0112155 179.1562 266.7468 15.24512939356801
AIST-2D (RS-48)         
1 41465U 16026B   22291.60990971  .00021458  00000+0  46137-3 0  9995
2 41465  97.0344 163.9106 0010673  51.9376 338.5552 15.44612985362527
NUSAT-1 (FRESCO)        
1 41557U 16033B   22292.48752003  .00023408  00000+0  62556-3 0  9994
2 41557  97.3891  30.6500 0008998 292.6543 196.2148 15.38044474356421
NUSAT-2 (BATATA)        
1 41558U 16033C   22292.49356755  .00023644  00000+0  59421-3 0  9999
2 41558  97.4127  37.0692 0008620 281.0952 209.5859 15.39934872356716
CARTOSAT-2C             
1 41599U 16040A   22291.65469274  .00007926  00000+0  37906-3 0  9999
2 41599  97.4739 350.0866 0014511 110.6166  40.4051 15.19167080350639
SATHYABAMASAT           
1 41600U 16040B   22292.36565631  .00025713  00000+0  70181-3 0  9991
2 41600  97.2054 342.0654 0010425  43.9698 316.2375 15.37355208351909
LAPAN-A3                
1 41603U 16040E   22292.46989944  .00002314  00000+0  10699-3 0  9992
2 41603  97.1952 324.0427 0014857  85.0145  50.9269 15.21018179350889
BIROS                   
1 41604U 16040F   22292.43056878  .00004531  00000+0  18243-3 0  9997
2 41604  97.1981 332.1540 0012909  59.7699 300.4816 15.25279329351350
SWAYAM                  
1 41607U 16040J   22292.07575763  .00022913  00000+0  65345-3 0  9998
2 41607  97.2009 339.8053 0010900  45.5323 314.6811 15.36003715351723
BEESAT-4                
1 41619U 16040W   22292.35998750  .00020394  00000+0  60459-3 0  9999
2 41619  97.2025 339.8462 0009198  42.5041 317.6913 15.34825568339705
3CAT-2                  
1 41732U 16051B   22292.37870700  .00020369  00000+0  57295-3 0  9999
2 41732  97.3830 215.5756 0010370 196.4111 285.1957 15.36468159344336
PRATHAM                 
1 41783U 16059A   22292.32246469  .00000543  00000+0  11272-3 0  9994
2 41783  97.9012 328.8450 0034267 140.8497 219.5194 14.63467225323748
ALSAT 1N                
1 41789U 16059G   22292.40524916  .00000936  00000+0  18284-3 0  9991
2 41789  97.9035 333.7851 0029340 123.0040 237.3983 14.64826340324015
LISHUI 1-01             
1 41845U 16066E   22292.50350540  .00053521  00000+0  45058-2 0  9999
2 41845  98.7250  74.2418 0187711  35.6996 325.6469 14.85313620315168
CARTOSAT-2D             
1 41948U 17008A   22292.18663722  .00002036  00000+0  10000-3 0  9998
2 41948  97.4527 350.3103 0005220 254.6411 105.4364 15.19198601314584
NAYIF-1 (EO-88)         
1 42017U 17008BX  22291.98227799  .00025546  00000+0  66120-3 0  9998
2 42017  97.2551 356.5280 0005124 150.5755 209.5781 15.39038993316040
ZHUHAI-1 02 (CAS-4B)    
1 42759U 17034B   22292.48877740  .00007579  00000+0  43496-3 0  9990
2 42759  43.0186   8.6066 0010508 347.8482 131.3595 15.12879583295133
ZHUHAI-1 01 (CAS-4A)    
1 42761U 17034D   22292.51970714  .00007551  00000+0  43232-3 0  9990
2 42761  43.0188   7.1323 0010807 347.6113 143.5738 15.12968314295145
UCLSAT                  
1 42765U 17036A   22291.84921987  .00017049  00000+0  53964-3 0  9995
2 42765  97.1848 330.7795 0007209 234.1206 125.9368 15.32797533296739
NIUSAT                  
1 42766U 17036B   22292.09417742  .00010781  00000+0  39018-3 0  9993
2 42766  97.1912 325.5768 0011277 243.0863 116.9225 15.28520464295678
CARTOSAT-2E             
1 42767U 17036C   22292.55369225  .00005382  00000+0  25859-3 0  9996
2 42767  97.4399 351.3466 0007176 314.9263 152.8827 15.19230230295203
LITUANICASAT-2          
1 42768U 17036D   22291.59157863  .00041057  00000+0  93626-3 0  9999
2 42768  97.1913 334.7055 0008296 210.7160 149.3604 15.42760532296186
AALTO-1                 
1 42775U 17036L   22292.40330759  .00008603  00000+0  32322-3 0  9991
2 42775  97.1863 325.5571 0010334 241.9307 118.0888 15.27362396295684
URSA MAIOR              
1 42776U 17036M   22292.07087709  .00009458  00000+0  34730-3 0  9993
2 42776  97.1877 326.1022 0010021 241.2400 118.7834 15.28091744295672
COMPASS 2               
1 42777U 17036N   22291.80624773  .00027976  00000+0  76557-3 0  9990
2 42777  97.1910 333.5462 0007826 216.8764 143.1944 15.37281480296067
MAX VALIER SAT          
1 42778U 17036P   22292.10514759  .00011385  00000+0  40516-3 0  9990
2 42778  97.1931 329.0191 0008681 240.3164 119.7213 15.29085285295788
PEGASUS                 
1 42784U 17036V   22292.04688916  .00014784  00000+0  48499-3 0  9991
2 42784  97.1867 330.0903 0007938 239.1260 120.9201 15.31673091295910
NUDTSAT                 
1 42787U 17036Y   22292.55050554  .00037425  00000+0  97035-3 0  9998
2 42787  97.1872 335.7625 0007401 211.4683 148.6100 15.38892935296147
SUCHAI                  
1 42788U 17036Z   22292.07369321  .00020188  00000+0  61165-3 0  9994
2 42788  97.1868 332.1284 0007296 230.5246 129.5352 15.34155727296115
SKCUBE                  
1 42789U 17036AA  22291.35938951  .00014678  00000+0  46203-3 0  9999
2 42789  97.1868 330.7360 0007384 235.6526 124.4019 15.33005514295884
VZLUSAT-1               
1 42790U 17036AB  22291.85823112  .00030300  00000+0  79567-3 0  9997
2 42790  97.1883 335.0181 0006450 218.5245 141.5541 15.38551978296182
ROBUSTA-1B              
1 42792U 17036AD  22291.91794330  .00019029  00000+0  58299-3 0  9999
2 42792  97.1866 331.9507 0006902 231.7595 128.3027 15.33816554296023
D-SAT                   
1 42794U 17036AF  22291.94379782  .00004236  00000+0  35479-3 0  9993
2 42794  97.4567 290.9014 0122716  32.3711 328.4963 14.93200159289937
NORSAT 2                
1 42828U 17042D   22292.14425690  .00003047  00000+0  29531-3 0  9992
2 42828  97.4153 141.5500 0012730 315.4649  44.5547 14.93337209286608
TECHNOSAT               
1 42829U 17042E   22292.15610985  .00001136  00000+0  11656-3 0  9993
2 42829  97.4064 139.0125 0012877 318.9021  41.1228 14.92172245286536
2017-042F               
1 42830U 17042F   22292.11551924  .00005849  00000+0  52358-3 0  9997
2 42830  97.4191 144.2009 0012195 304.9891  55.0186 14.96139968286762
FLYING LAPTOP           
1 42831U 17042G   22292.07449824  .00002107  00000+0  21263-3 0  9993
2 42831  97.4086 139.2733 0012599 318.9363  41.0917 14.92028808286528
CORVUS BC2              
1 42846U 17042X   22292.13415566  .00002328  00000+0  22762-3 0  9992
2 42846  97.4069 142.3733 0008005 309.1850  50.8659 14.93227147286732
CORVUS BC1              
1 42847U 17042Y   22292.13947633  .00002192  00000+0  21410-3 0  9996
2 42847  97.4072 142.7045 0007684 308.5799  51.4732 14.93313970286744
CZ-4C R/B               
1 43012U 17072C   22292.14389971  .00000317  00000+0  76012-4 0  9996
2 43012  98.6851 333.5061 0126092 299.4416  59.4245 14.56424311261868
RADFXSAT (FOX-1B)       
1 43017U 17073E   22291.67611024  .00003218  00000+0  24063-3 0  9997
2 43017  97.6566 180.7883 0246521 143.7146 218.1073 14.82302134265369
EAGLESAT 1              
1 43018U 17073F   22292.15308243  .00005536  00000+0  39248-3 0  9994
2 43018  97.6605 183.5223 0237407 134.6238 227.4614 14.85139458265440
INS-1C                  
1 43116U 18004F   22292.48032781  .00015983  00000+0  50249-3 0  9996
2 43116  97.3658   7.7718 0006135 270.6064  89.4475 15.33039190265313
FLOCK 3P'-3             
1 43119U 18004J   22291.62692323  .00008320  00000+0  29998-3 0  9992
2 43119  97.3648   4.3095 0007465 292.8537  67.1914 15.28762763265026
FLOCK 3P'-2             
1 43120U 18004K   22292.19047365  .00007651  00000+0  27949-3 0  9997
2 43120  97.3651   4.4129 0007355 291.9848  68.0610 15.28363039265075
FLOCK 3P'-1             
1 43121U 18004L   22291.20819224  .00037749  00000+0  84197-3 0  9999
2 43121  97.3695  10.5822 0005162 257.5570 102.5100 15.43463635265322
FLOCK 3P'-4             
1 43122U 18004M   22292.43924924  .00007623  00000+0  27872-3 0  9995
2 43122  97.3660   4.8403 0007312 292.8093  67.2374 15.28334541265110
MICROMAS-2A             
1 43131U 18004W   22291.44536008  .00039499  00000+0  90244-3 0  9996
2 43131  97.3654  11.4182 0005040 265.3607  94.7065 15.42736074265499
PICSAT                  
1 43132U 18004X   22291.47950002  .00017171  00000+0  50900-3 0  9992
2 43132  97.3621   7.3732 0005987 277.9908  82.0656 15.34893333265255
CNUSAIL-1               
1 43133U 18004Y   22292.13952315  .00012219  00000+0  41111-3 0  9998
2 43133  97.3571   5.3285 0006506 286.2925  73.7601 15.30917444265197
2018-004Z               
1 43134U 18004Z   22292.18310484  .00015969  00000+0  49926-3 0  9996
2 43134  97.3601   7.0593 0006124 280.5516  79.5037 15.33217207265293
FOX-1D (AO-92)          
1 43137U 18004AC  22291.66967705  .00013365  00000+0  43562-3 0  9993
2 43137  97.3581   5.8281 0005979 286.4771  73.5813 15.31923894265197
STEP CUBE LAB           
1 43138U 18004AD  22292.20950770  .00031906  00000+0  80722-3 0  9999
2 43138  97.3658  11.1317 0005267 269.7248  90.3395 15.39693009265547
XIAOXIANG-2             
1 43155U 18008A   22292.52001903  .00012195  00000+0  61597-3 0  9990
2 43155  97.3379 346.9584 0016975  74.4805  32.8104 15.17097469262077
ZHOU ENLAI              
1 43156U 18008B   22292.55639527  .00013432  00000+0  68150-3 0  9990
2 43156  97.3429 346.9111 0014556  76.3252  60.3158 15.16951191262008
QUANTUTONG 1            
1 43158U 18008D   22292.41289660  .00010827  00000+0  57078-3 0  9998
2 43158  97.3381 344.4840 0014311  77.2035 300.0743 15.15656655261871
S-NET D                 
1 43186U 18014G   22292.26234898  .00002392  00000+0  20535-3 0  9998
2 43186  97.6448 195.5858 0009718 238.9643 121.0626 14.98372030257451
